Name,EnrollmentCount,Category,FullAddress,Latitude,Longitude
Academy for Sciences & Agriculture,168,Tiny,"Academy For Sciences And Agriculture, 100 Vadnais Blvd, St Paul, MN 55127-4036, USA",45.0456584,-93.0945393
Academy of Holy Angels,741,Medium,"Academy of Holy Angels, 6600 Nicollet Ave, Richfield, MN 55423-2498, USA",44.8822035,-93.2799753
Ada-Borup High School,156,Tiny,"Minnesota, USA",46.729553,-94.6858998
Adrian High School,157,Tiny,"Adrian High School, 415 Kentucky Ave, Adrian, MN 56110-1151, USA",43.6321885,-95.9364082
Aitkin High School,340,Small,"Aitkin High School, 306 2nd St NW, Aitkin, MN 56431-1246, USA",46.5333828,-93.7112764
AL-Amal School,71,Tiny,"Al-Amal School, 1401 Gardena Ave NE, Fridley, MN 55432-5815, USA",45.074937,-93.235881
Albany High School,468,Small,"Albany Senior High School, Albany, MN 56307, USA",45.6319444,-94.5611111
Albert Lea High School,796,Medium,"Albert Lea High School, 2000 Tiger Ln, Albert Lea, MN 56007, USA",43.673759,-93.351606
Alden-Conger High School,111,Tiny,"Alden School, 215 N Broadway, Alden, MN 56009-8700, USA",43.6727334,-93.5743847
Alexandria High School,1126,Large,"Jefferson Senior High School, 1401 Jefferson St, Alexandria, MN 56308-2573, USA",45.8757952,-95.3719822
Andover High School,1614,Large,"Andover Senior High School, 2115 Andover Blvd, Andover, MN 55304-3407, USA",45.238369,-93.319477
Annandale High School,498,Small,"Annandale High School, 855 Hemlock St E, Annandale, MN 55302-1167, USA",45.266188,-94.111039
Anoka High School,2157,VeryLarge,"SCHOOL, 3939 7th Ave, Anoka, MN 55303-1299, USA",45.225014,-93.383184
Apple Valley High School,1638,Large,"Apple Valley High School, 14450 Hayes Rd, Apple Valley, MN 55124-6797, USA",44.742466,-93.230689
ARTech High School,65,Tiny,"Artech Charter School, 1719 Cannon Rd, Northfield, MN 55057-1680, USA",44.439626,-93.184897
Ashby High School,70,Tiny,"Ashby, MN, USA",46.093016,-95.8175498
Atwater-Cosmos-Grove City H.S.,190,Tiny,"Atwater Cosmos Grove City School, Atwater, MN 56209, USA",45.1333332,-94.7797222
Austin High School,979,Medium,"Austin High School, 301 3rd St NW, Austin, MN 55912-3196, USA",43.6683319,-92.9790235
Austin Pacelli High School,41,Tiny,"Pacelli High School, 311 4th St NW, Austin, MN 55912-3195, USA",43.6691296,-92.9801925
Avalon School,130,Tiny,"Avalon School, 1745 University Ave W, St Paul, MN 55104, USA",44.95631,-93.1743078
B O L D High School,237,Small,"Bold Senior High School, 701 9th St S, Olivia, MN 56277-1599, USA",44.7694444,-94.9877778
Badger High School,44,Tiny,"Badger, MN 56714, USA",48.7824785,-96.0144482
Bagley High School,254,Small,"Bagley Jr & Senior High, 1130 Main Ave N, Bagley, MN 56621-8146, USA",47.5294082,-95.3985543
Barnesville High School,223,Small,"Barnesville High School, 302 3rd St SE, Barnesville, MN 56514, USA",46.6508333,-96.4155556
Barnum High School,174,Tiny,"Lincoln School, 2 E Hwy 61, Esko, MN 55733-9629, USA",46.7356437,-92.3527821
Battle Lake High School,130,Tiny,"Battle Lake Secondary School, 402 W Summit St, Battle Lake, MN 56515-4029, USA",46.2831507,-95.7189134
Becker High School,722,Medium,"Becker High School, 12000 Hancock St SE, Becker, MN 55308-9526, USA",45.3990075,-93.8728094
Belgrade-Brooten-Elrosa H.S.,178,Tiny,"Belgrade-Brooten-Elrosa Secondary, 710 Washburn Ave, Belgrade, MN 56312-4627, USA",45.4491667,-95.0038889
Belle Plaine High School,427,Small,"Belle Plaine High School, 220 S Market St, Belle Plaine, MN 56011-1796, USA",44.6202777,-93.7719444
Bemidji High School,1145,Large,"Bemidji High School, 2900 Division St W, Bemidji, MN 56601, USA",47.4685714,-94.9258903
Benilde-St. Margaret's School,930,Medium,"Benilde-St. Margaret's School, 2501 Hwy 100 S, St Louis Park, MN 55416, USA",44.958254,-93.3449936
Benson High School,282,Small,"Benson Secondary School, 1400 Montana Ave, Benson, MN 56215-1246, USA",45.3202778,-95.5977778
Bertha-Hewitt High School,111,Tiny,"Bertha, MN 56437, USA",46.2666295,-95.0628047
Bethany Academy,116,Tiny,"Minnesota, USA",46.729553,-94.6858998
Bethlehem Academy,195,Tiny,"Bethlehem Academy, 105 3rd Ave SW, Faribault, MN 55021-6096, USA",44.2888525,-93.2721603
Big Lake High School,857,Medium,"Big Lake Senior High School, 501 Minnesota Ave, Big Lake, MN 55309-9246, USA",45.3396582,-93.7383986
Bigfork High School,78,Tiny,"Bigfork, MN 56628, USA",47.7443867,-93.6540847
Blackduck High School,156,Tiny,"Blackduck Public Schools, 156 1st St NE, Blackduck, MN 56630, USA",47.7317194,-94.5499738
Blaine High School,2551,VeryLarge,"Blaine High School, 12555 University Ave NE, Blaine, MN 55434-2199, USA",45.1990278,-93.2634295
Blake School (The),521,Medium,"Blake School, Hopkins, MN 55343, USA",44.9222569,-93.3911169
Blooming Prairie High School,198,Tiny,"Blooming Prairie High School, 202 4th Ave, Blooming Prairie, MN 55917-1129, USA",43.86789,-93.062221
Bloomington Jefferson High School,1543,Large,"Thomas Jefferson High School, 4001 W 102nd St, Minneapolis, MN 55437-2699, USA",44.818175,-93.33132
Bloomington Kennedy High School,1275,Large,"Kennedy Senior High School, 9701 Nicollet Ave S, Minneapolis, MN 55420-4498, USA",44.828034,-93.276122
Blue Earth Area High School,322,Small,"Blue Earth Area Senior High School, 1125 N Grove St, Blue Earth, MN 56013-2310, USA",43.6447566,-94.091725
Braham High School,217,Small,"Braham High School, Braham, MN 55006, USA",45.718757,-93.178547
Brainerd High School,1685,Large,"Brainerd Senior High School, 702 S 6th St, Brainerd, MN 56401-4041, USA",46.35139,-94.2030599
Brandon High School,63,Tiny,"Brandon High School, 206 3Rd St, Brandon, MN 56315-4624, USA",45.9672222,-95.5997222
Breck School,398,Small,"Breck School, 123 Ottawa Ave N, Golden Valley, MN 55422-5189, USA",44.980698,-93.34247
Breckenridge High School,261,Small,"Breckenridge High School, 710 13th St N, Breckenridge, MN 56520-1399, USA",46.2706703,-96.576499
Brooklyn Center High School,329,Small,"286-Bcalc-Brooklyn Center High School ALC, 6500 Humboldt Ave, Minneapolis, MN 55430-1800, USA",45.0738541,-93.2974495
Browerville High School,151,Tiny,"Browerville Public School, 620 Park Ave N, Browerville, MN 56438, USA",46.0858333,-94.8713889
Buffalo High School,1626,Large,"Buffalo High School, Buffalo, MN 55313, USA",45.1824529,-93.8299406
Buffalo Lake-Hector-Stewart High School,156,Tiny,"Hector, MN 55342, USA",44.7438507,-94.715547
Bug-O-Nay-Ge-Shig School,47,Tiny,"Bug-O-Nay-Ge-Shig School, North Cass, MN 56626, USA",47.3480599,-94.22
Burnsville High School,2530,VeryLarge,"Burnsville High School, 600 Hwy 13 E, Burnsville, MN 55337-2995, USA",44.7852425,-93.265778
Butterfield-Odin High School,57,Tiny,"Butterfield Public School, 440 Hubbard Ave, Butterfield, MN 56120-9486, USA",43.9596791,-94.791371
Byron High School,512,Medium,"Byron High School, Byron, MN 55920, USA",44.0336111,-92.6561111
Caledonia High School,300,Small,"Caledonia, MN 55921, USA",43.6346913,-91.4968076
Calvin Christian High School,65,Tiny,"Calvin Christian High School, 755 73rd Ave NE, Minneapolis, MN 55432-3202, USA",45.1013329,-93.252628
Cambridge Christian School,40,Tiny,"Cambridge Christian School, 2211 Old Main St S, Cambridge, MN 55008-2503, USA",45.549813,-93.226203
Cambridge-Isanti High School,1367,Large,"Cambridge-Isanti High School, 430 8th Ave NW, Cambridge, MN 55008-1097, USA",45.5805555,-93.2294444
Campbell-Tintah High School,35,Tiny,"Campbell Schools, 430 Connecticut Ave, Campbell, MN 56522, USA",46.0955556,-96.4047222
Canby High School,157,Tiny,"Canby High School, 106 Ring Ave N, Canby, MN 56220-1264, USA",44.711111,-96.2791667
Cannon Falls High School,355,Small,"Cannon Falls High School, 820 Minnesota St E, Cannon Falls, MN 55009-2299, USA",44.512654,-92.886535
Cannon Valley Lutheran,27,Tiny,"Cannon Valley Lutheran High School, 404 W Franklin St, Morristown, MN 55052, USA",44.226873,-93.449338
Carlton High School,132,Tiny,"Carlton High School, 310 4th St, Carlton, MN 55718, USA",46.6652778,-92.4227778
Cass Lake-Bena High School,156,Tiny,"Cass Lake-Bena Secondary School, 15308 State 371 NW, Cass Lake, MN 56633, USA",47.355654,-94.613021
Cedar Mountain High School,109,Tiny,"Cedar Mountain High School, 310 Somerville Ave, Morgan, MN 56266, USA",44.4158333,-94.9222221
Centennial High School,2017,VeryLarge,"Centennial Senior, 4757 N Rd, Circle Pines, MN 55014-1545, USA",45.1530243,-93.1496755
Central Minnesota Christian,85,Tiny,"Central Minnesota Christian School, 204 School St, Prinsburg, MN 56281, USA",44.9372432,-95.1861691
Champlin Park High School,2571,VeryLarge,"SCHOOL, 6025 109Th Ave, Champlin, MN 55316-3488, USA",45.151833,-93.355071
Chanhassen High School,1383,Large,"Chanhassen High School, 2200 County Road 18, Chanhassen, MN 55317-4711, USA",44.84331,-93.576908
Chaska High School,1042,Large,"CHASKA HIGH SCHOOL, 2200 County Road 18, Chanhassen, MN 55317-4711, USA",44.84331,-93.576908
Chatfield High School,251,Small,"Chatfield Jr and Senior High School, Chatfield, MN 55923, USA",43.8547222,-92.1902778
Cherry High School,83,Tiny,"Iron Junction, MN 55751, USA",47.416427,-92.60665
Chisago Lakes Area High School,1057,Large,"Lindstrom, MN, USA",45.3894083,-92.8479921
Chisholm High School,159,Tiny,"Chisholm High School, Chisholm, MN 55719, USA",47.4861013,-92.8837997
Chokio-Alberta High School,38,Tiny,"Chokio-Alberta High School, Alberta, MN 56207, USA",45.5755556,-96.0483333
Christ's Household of Faith,36,Tiny,"St Paul, MN, USA",44.9541667,-93.1138889
Clearbrook-Gonvick High School,117,Tiny,"Clearbrook-Gonvick Elementary School, 200 Elm St, Clearbrook, MN 56634, USA",47.6922222,-95.43
Cleveland High School,130,Tiny,"Cleveland Jr High School, 1000 Walsh St, St Paul, MN 55106-3198, USA",44.9719101,-93.0685515
Climax High School,37,Tiny,"Climax, MN 56523, USA",47.6077515,-96.8170222
Clinton-Graceville-Beardsley H.S.,111,Tiny,"Clinton-Graceville-Beardsley Elementary School, 601 1st St, Clinton, MN 56225, USA",45.4577419,-96.4383648
Cloquet Christian Academy,4,Tiny,"Minnesota, USA",46.729553,-94.6858998
Cloquet High School,614,Medium,"Cloquet High School, 1000 18th St, Cloquet, MN 55720-2487, USA",46.708799,-92.4442323
Columbia Heights High School,697,Medium,"Columbia Heights High School, 1400 49th Ave, Minneapolis, MN 55421-1939, USA",45.0553446,-93.2398034
Comfrey High School,34,Tiny,"Comfrey Secondary School, Comfrey, MN 56019, USA",44.1091667,-94.9075
Community Christian High School,17,Tiny,"Western Christian High School, Hull, IA 51239, USA",43.19219,-96.14263
Community of Peace Academy,146,Tiny,"Minnesota, USA",46.729553,-94.6858998
Concordia Academy-Roseville,445,Small,"Concordia Academy, 2400 Dale St N, St Paul, MN 55113-4598, USA",45.012855,-93.122943
Cook County High School,166,Tiny,"Cook County Community Education, Superior National Forest, 101 W 5th St, Grand Marais, MN 55604-1337, USA",47.755742,-90.334621
Coon Rapids High School,2120,VeryLarge,"School, 2340 Northdale Blvd NW, Coon Rapids, MN 55433-3097, USA",45.181147,-93.325203
Cotter High School,299,Small,"Cotter Schools, 1115 W Broadway, Winona, MN 55987, USA",44.052811,-91.667143
Country Bible Christian,7,Tiny,"Country Bible Christian Academy, 27871 140th Ave, Ashby, MN 56309-4552, USA",46.1654299,-95.7906457
Cretin-Derham Hall High School,1328,Large,"Cretin-Derham Hall, 550 Albert St S, St Paul, MN 55116-1699, USA",44.9248944,-93.1593369
Cristo Rey Jesuit High School,268,Small,"Cristo Rey Jesuit High School, 2924 4th Ave S, Minneapolis, MN 55408, USA",44.9494476,-93.2709123
Cromwell High School,74,Tiny,"Cromwell High School, 5624 Hwy 210, Cromwell, MN 55726, USA",46.6791667,-92.8847222
Crookston High School,365,Small,"Crookston High School, 402 Fisher Ave, Crookston, MN 56716, USA",47.78925,-96.603526
Crosby-Ironton High School,309,Small,"Crosby-Ironton Secondary School, 711 Poplar St, Crosby, MN 56441, USA",46.4779919,-93.9655317
Dassel-Cokato High School,557,Medium,"Dassel-Cokato High School, 4852 Reardon Ave SW, Cokato, MN 55321-5011, USA",45.0823615,-94.2336686
Dawson-Boyd High School,138,Tiny,"Dawson High School, 848 Chestnut St, Dawson, MN 56232-2224, USA",44.9305556,-96.0580556
Deer River High School,215,Small,"Deer River High School, 101 1st Ave NE, Deer River, MN 56636-8734, USA",47.3344444,-93.7916666
Delano High School,735,Medium,"Delano Public School, 700 Elm Ave E # 1, Delano, MN 55328-8237, USA",45.042894,-93.776949
DeLaSalle High School,544,Medium,"De Lasalle High School, Mississippi National River and Recreation Area, 1 De La Salle Dr, Minneapolis, MN 55401, USA",44.9871876,-93.2627251
Detroit Lakes High School,737,Medium,"Detroit Lakes High School, 1301 Roosevelt Ave, Detroit Lakes, MN 56501-4407, USA",46.8083333,-95.8372221
Dilworth-Glyndon-Felton H.S.,330,Small,"Dilworth-glyndon-felton, Minnesota, USA",46.9858777,-96.5887048
Discovery Public School of Faribault,40,Tiny,"Faribault, MN 55021, USA",44.2949636,-93.268827
Dover-Eyota High School,303,Small,"Dover-Eyota High School, 615 South Ave, Eyota, MN 55934, USA",43.9830556,-92.2313889
Duluth East High School,1345,Large,"Duluth East High School, 2900 E 4th St, Duluth, MN 55812-1597, USA",46.8243125,-92.042309
E.C.H.O. Charter School,57,Tiny,"Echo Charter School, 101 Rocket Ave, Echo, MN 56237, USA",44.6173272,-95.4101143
Eagan High School,2147,VeryLarge,"Eagan High School, 4185 Braddock Trl, Eagan, MN 55123-1762, USA",44.806123,-93.132691
Eagle Country Christian Academy,4,Tiny,"Eagle Country Christian Academy, Remer, MN 56672, USA",47.0561614,-93.9158912
Eagle Ridge Academy,150,Tiny,"Eagle Ridge Academy, 7255 Flying Cloud Dr, Eden Prairie, MN 55344-3549, USA",44.872297,-93.412005
Eagle Valley High School,72,Tiny,"Eagle Bend, MN 56446, USA",46.1649632,-95.0391936
East Central High School,190,Tiny,"Central High School, 275 Lexington Pkwy, St Paul, MN 55104-5402, USA",44.94941,-93.1479984
East Grand Forks High School,514,Medium,"Sacred Heart High School, 122 3rd St NW, East Grand Forks, MN 56721-1827, USA",47.9277919,-97.0229321
East Ridge High School,1543,Large,"East Ridge High School, 4200 Pioneer Dr, Woodbury, MN 55129-9534, USA",44.8862624,-92.9327734
Eastview High School,2056,VeryLarge,"Eastview High School, 6200 140th St W, Apple Valley, MN 55124-3328, USA",44.743793,-93.192249
Eden Prairie High School,3007,VeryLarge,"Eden Prairie High School, 17185 Valley View Rd, Eden Prairie, MN 55346-4253, USA",44.872785,-93.491135
Eden Valley-Watkins High School,225,Small,"Eden Valley Secondary School, 298 Brooks St N, Eden Valley, MN 55329-1209, USA",45.3255556,-94.5441667
Edgerton High School,95,Tiny,"Southwest MN Christian High School, 550 W Elizabeth St, Edgerton, MN 56128-2777, USA",43.8759251,-96.1382995
Edina High School,2436,VeryLarge,"Edina High School, Minneapolis, MN 55439, USA",44.884124,-93.375335
EdVisions Off Campus High School,45,Tiny,"Henderson, MN, USA",44.5282971,-93.9077438
El Colegio Charter School,51,Tiny,"El Colegio Charter School, 4137 Bloomington Ave, Minneapolis, MN 55407-3332, USA",44.927802,-93.251997
El Shaddai School,18,Tiny,"Minnesota, USA",46.729553,-94.6858998
Elk River High School,1570,Large,"Elk River Senior High School, 900 School St NW, Elk River, MN 55330-1397, USA",45.3125,-93.5694444
Ellsworth High School,62,Tiny,"Ellsworth High School, 513 S Broadway St, Ellsworth, MN 56129-1053, USA",43.515523,-96.0186337
Ely High School,163,Tiny,"Washington Elementary School, Superior National Forest, 600 E Harvey St, Ely, MN 55731-1614, USA",47.901327,-91.858014
Esko High School,368,Small,"Lincoln School, 2 E Hwy 61, Esko, MN 55733-9629, USA",46.7356437,-92.3527821
Evansville High School,47,Tiny,"Evansville Secondary School, 123 2nd Ave, Evansville, MN 56326, USA",46.0066012,-95.6888464
Eveleth-Gilbert High School,294,Small,"Eveleth-Gilbert Senior High School, Eveleth, MN 55734, USA",47.4644444,-92.5313889
FAIR School,96,Tiny,"Fair School, 3915 Adair Ave, Minneapolis, MN 55485-0001, USA",45.026907,-93.357235
Fairmont High School,494,Small,"Fairmont High School, 714 Victoria St, Fairmont, MN 56031-4351, USA",43.6363442,-94.4488608
Faith Christian School,24,Tiny,"Faith Christian School, Lake View, MN 56501, USA",46.7966667,-95.886111
Faribault High School,946,Medium,"Faribault High School, 330 9th Ave SW, Faribault, MN 55021-5900, USA",44.285343,-93.285017
Farmington High School,1565,Large,"Farmington High School, 20655 Flagstaff Ave, Farmington, MN 55024-9242, USA",44.6501544,-93.2005405
Fergus Falls High School,730,Medium,"Fergus Falls Middle School, 601 Randolph Ave, Fergus Falls, MN 56537-1600, USA",46.2902778,-96.0655556
Fertile-Beltrami High School,135,Tiny,"Fertile-Beltrami Elementary School, 210 Mill St, Fertile, MN 56540, USA",47.5325,-96.2808333
Fillmore Central High School,159,Tiny,"Fillmore Central High School, 145 Main Ave S, Harmony, MN 55939, USA",43.5530212,-92.0107155
Fisher High School,76,Tiny,"Fisher High School, Fisher, MN 56723, USA",47.7977778,-96.7972221
Floodwood High School,94,Tiny,"Floodwood Secondary School, 115 W 4th Ave, Floodwood, MN 55736, USA",46.9296747,-92.9149715
Foley High School,436,Small,"Foley High School, 757 Penn St, Foley, MN 56329, USA",45.6702778,-93.9088888
Fond du Lac Ojibwe High School,34,Tiny,"Cloquet, MN, USA",46.7241667,-92.4638889
Forest Lake High School,1952,Large,"Forest Lake High School, Forest Lake, MN 55025, USA",45.2585787,-92.9799404
Fosston High School,172,Tiny,"Fosston High School, 301 1st St E, Fosston, MN 56542-1399, USA",47.575,-95.7475
Four Directions Charter School,63,Tiny,"Four Directions Charter School, 1113 W Broadway Ave, Minneapolis, MN 55411-2505, USA",44.9990662,-93.2947144
Frazee High School,222,Small,"Frazee Senior High School, 305 N Lake St, Frazee, MN 56544-4512, USA",46.7291989,-95.6991865
Fridley High School,718,Medium,"Fridley High School, 6000 Moore Lake Dr W, Minneapolis, MN 55432-5601, USA",45.0764422,-93.2528347
Fulda High School,140,Tiny,"Fulda High School, 410 N College Ave, Fulda, MN 56131-9439, USA",43.8744004,-95.6059782
G-F-W High School,265,Small,"West High School, Minneapolis, MN 55408, USA",44.9516317,-93.2996702
Glencoe-Silver Lake High School,513,Medium,"Glencoe-Silver Lake Senior High School, 1825 16Th St, Glencoe, MN 55336-1818, USA",44.7761233,-94.1376936
Glenville-Emmons High School,106,Tiny,"Glenville High School, 230 5th St SE, Glenville, MN 56036-8701, USA",43.5672903,-93.2756894
Goodhue High School,194,Tiny,"Goodhue, MN 55027, USA",44.4005221,-92.6238028
Goodridge High School,40,Tiny,"Goodridge Elementary School, 201 N Osmund Ave, Goodridge, MN 56725, USA",48.1458333,-95.8083333
Granada-Huntley-East Chain H.S.,89,Tiny,"Granada Huntley East Chain Sch, 300 Reynolds St, Granada, MN 56039-4011, USA",43.6980918,-94.3455455
Grand Meadow High School,80,Tiny,"Grand Meadow Elementary School, 710 4th Ave NE, Grand Meadow, MN 55936-8683, USA",43.7103083,-92.5646103
Grand Rapids High School,947,Medium,"Grand Rapids High School, 800 NW Conifer Dr, Grand Rapids, MN 55744-2458, USA",47.2483333,-93.5438889
Great River Education Center,33,Tiny,"Great River Education Center, 132 W Division St, Waite Park, MN 56387, USA",45.553186,-94.218342
Great River School,160,Tiny,"Great River School, 1326 Energy Park Dr, St Paul, MN 55108-5202, USA",44.970201,-93.155491
Greenbush-Middle River High School,116,Tiny,"Greenbush Middle River School, 401 Park Ave W, Greenbush, MN 56726-4426, USA",48.6966199,-96.1855848
Greenway High School,263,Small,"Greenway High School, 308 Roosevelt Ave, Coleraine, MN 55722, USA",47.2883333,-93.4252778
Groves Academy,69,Tiny,"Minnesota, USA",46.729553,-94.6858998
Grygla-Gatzke High School,61,Tiny,"Grygla, MN 56727, USA",48.3007976,-95.6183321
Hancock High School,56,Tiny,"Hancock, MN 56244, USA",45.4975,-95.7966667
Harbor City International School,167,Tiny,"Harbor City International School, 332 W Michigan St # 300, Duluth, MN 55802-1644, USA",46.7834268,-92.1017868
Harvest Christian School,12,Tiny,"Harvest Christian School, 21 Minnesota St, Sandstone, MN 55072-4403, USA",46.1261111,-92.8705556
Hastings High School,1452,Large,"Hastings High School, 200 General Sieben Dr, Hastings, MN 55033-2597, USA",44.744113,-92.890808
Hawley High School,275,Small,"Hawley High School, Hawley, MN 56549, USA",46.8833332,-96.3194444
Hayfield High School,232,Small,"High School Ofc, 9 6th Ave SE, Hayfield, MN 55940-7804, USA",43.8902412,-92.8376892
Henning High School,84,Tiny,"Henning Elementary School, 500 School Ave, Henning, MN 56551-4003, USA",46.3199328,-95.4485468
Henry Sibley High School,1201,Large,"Henry Sibley Senior High School, 1897 Delaware Ave, Mendota Heights, MN 55118-4399, USA",44.8871811,-93.1083114
Heritage Christian Academy,120,Tiny,"Heritage Christian Academy, 15655 Bass Lake Rd, Maple Grove, MN 55311-3103, USA",45.0816159,-93.4795069
Herman-Norcross High School,25,Tiny,"Herman, MN 56248, USA",45.8086111,-96.1433333
Hermantown High School,626,Medium,"Hermantown High School, 4335 Hawk Cir Dr, Hermantown, MN 55811-3648, USA",46.8213294,-92.2396349
Hibbing High School,634,Medium,"Hibbing High School, 800 E 21st St, Hibbing, MN 55746-1857, USA",47.4262541,-92.9325385
High School for Recording Arts,145,Tiny,"High School For Recording Arts, 550 Vandalia St, St Paul, MN 55114-1833, USA",44.957461,-93.19155
Hill City High School,74,Tiny,"Hill City School, 500 Ione Ave, Hill City, MN 55748-9628, USA",46.9931645,-93.5927704
Hillcrest Lutheran Academy,160,Tiny,"Hillcrest Lutheran Academy, 610 Hillcrest Dr, Fergus Falls, MN 56537, USA",46.277904,-96.085996
Hill-Murray School,705,Medium,"Hill-Murray School, 2625 Larpenteur Ave E, St Paul, MN 55109-5098, USA",44.993299,-92.9899379
Hills-Beaver Creek High School,98,Tiny,"Hills Beaver Creek School District, 205 E 2nd St, Hills, MN 56138-1080, USA",43.5288609,-96.3564244
Hinckley-Finlayson High School,248,Small,"Hinckley Finlayson High School, 201 Main St E, Hinckley, MN 55037-9368, USA",46.0161111,-92.94
Hmong Academy,210,Small,"Hmong College Prep Academy, 1515 Brewster St, St Paul, MN 55108-2612, USA",44.974985,-93.164225
Holdingford High School,292,Small,"Holdingford High School, Holdingford, MN 56340, USA",45.7347222,-94.4675
Holy Family Academy,10,Tiny,"Holy Family Academy, 5925 W Lake St, St Louis Park, MN 55416-2019, USA",44.9449645,-93.3546719
Holy Family Catholic High School,595,Medium,"Holy Family Catholic High School, 8101 Kochia Ln, Victoria, MN 55386-8228, USA",44.857998,-93.645144
Holy Trinity High School,82,Tiny,"Holy Trinity High School, 110 Winsted Ave W, Winsted, MN 55395-7901, USA",44.9655556,-94.0469444
Hope Lutheran High School,47,Tiny,"Hope Lutheran High School, 253 Liberty St, Winona, MN 55987, USA",44.0480639,-91.6300289
Hopkins High School,2070,VeryLarge,"Hopkins High School, 2400 Lindbergh Dr, Minnetonka, MN 55305-3123, USA",44.960279,-93.410042
Houston High School,124,Tiny,"Houston Elementary School, 310 S Sherman St, Houston, MN 55943-8653, USA",43.7607995,-91.5668096
Howard Lake-Waverly-Winsted H.S.,311,Small,"Howard Lake-waverly-winsted, Minnesota, USA",45.0406112,-94.0444128
Hutchinson High School,762,Medium,"SENIOR HIGH SCHOOL, 1200 Roberts Rd SW, Hutchinson, MN 55350-2198, USA",44.885275,-94.393766
Immanuel Lutheran H.S.,35,Tiny,"Immanuel Lutheran School, 30 S Wabasha, Plainview, MN 55964-1399, USA",44.1638889,-92.1661111
Indus High School,40,Tiny,"Indus School, 8560 State Highway 11, Baudette, MN 56623-9261, USA",48.6993236,-94.2994422
International Falls H.S.,387,Small,"International Falls, MN, USA",48.6023149,-93.4040679
International School of MN (The),141,Tiny,"Elizabeth Hall International Elementary School, 1601 Aldrich Ave N, Minneapolis, MN 55411-3395, USA",44.9956171,-93.2898581
Irondale High School,1355,Large,"Irondale High School- Wendt Stadium, New Brighton, MN 55112, USA",45.0892609,-93.2049852
Isle High School,121,Tiny,"Isle High School, 730 County Road 17, Isle, MN 56342-4590, USA",46.1363973,-93.473486
Jackson County Central High School,310,Small,"Jackson County Central High School, 1128 North Hwy, Jackson, MN 56143-1075, USA",43.6246806,-94.9997137
Janesville-Waldorf-Pemberton H.S.,164,Tiny,"Janesville-Waldorf-Pemberton Elementary School, 110 N Main St, Janesville, MN 56048, USA",44.1162511,-93.7075322
Jordan High School,438,Small,"Jordan High School, 600 Sunset Dr, Jordan, MN 55352-1698, USA",44.6583213,-93.6399292
Kasson-Mantorville High School,568,Medium,"Kasson-Mantorville Senior High, 101 16th St, Kasson, MN 55944-1610, USA",44.0449639,-92.746578
Kelliher High School,49,Tiny,"Kelliher High School, Kelliher, MN 56650, USA",47.9430556,-94.448611
Kenyon-Wanamingo High School,230,Small,"Kenyon-Wanamingo Senior High School, 400 6th St, Kenyon, MN 55946-1203, USA",44.267069,-92.99035
Kerkhoven-Murdock-Sunburg H.S.,145,Tiny,"Kerkhoven Central Office, 302 N 15th St, Kerkhoven, MN 56252-9305, USA",45.1905284,-95.3248074
Kimball Area High School,215,Small,"Kimball Area High School, Kimball, MN 55353, USA",45.3141667,-94.3027778
Kingsland High School,214,Small,"Kingsland Senior High School, 705 N Section Ave, Spring Valley, MN 55975-1534, USA",43.6948057,-92.3889881
Kittson Central High School,80,Tiny,"High School, Hallock, MN 56728, USA",48.78,-96.9472222
La Crescent High School,475,Small,"La Crescent Senior High School, 1301 Lancer Blvd, La Crescent, MN 55947-1699, USA",43.8157995,-91.3126382
Lac qui Parle Valley High School,250,Small,"La Qui Parle Valley School, 2860 291st Ave, Madison, MN 56256-3296, USA",45.0727803,-96.0627669
Lake City High School,348,Small,"Hill City School, 500 Ione Ave, Hill City, MN 55748-9628, USA",46.9931645,-93.5927704
Lake Crystal-Wellcome Memorial,209,Small,"Lake Crystal, Minnesota 56055, USA",44.1114414,-94.2051476
Lake of the Woods H.S.,158,Tiny,"Lake of the Woods Elementary School, Baudette, MN 56623, USA",48.7089138,-94.6355862
Lake Park-Audubon,154,Tiny,"Lake Park, MN 56554, USA",46.8863481,-96.0945002
Lake Region Christian School,40,Tiny,"Lake Region Christian School, 7398 Fairview Rd, Baxter, MN 56425-8294, USA",46.35278,-94.24722
Lakeview Christian Academy,60,Tiny,"Lakeview Christian Academy, 155 W Central Entrance, Duluth, MN 55811-3497, USA",46.8005166,-92.137412
Lakeview High School,131,Tiny,"Lakeview High School, Cottonwood, MN 56229, USA",44.621586,-95.6666278
Lakeville North High School,1711,Large,"Lakeville North High School, 19600 Ipava Ave, Lakeville, MN 55044-7241, USA",44.6663203,-93.259083
Lakeville South High School,1774,Large,"Lakeville South High School, 21135 Jacquard Ave, Lakeville, MN 55044-6022, USA",44.6434177,-93.2713589
Lancaster High School,40,Tiny,"Lancaster, MN 56735, USA",48.8583146,-96.8042148
Lanesboro High School,85,Tiny,"Lanesboro Secondary School, 100 Kirkwood St E, Lanesboro, MN 55949, USA",43.7169085,-91.9762669
Laporte High School,61,Tiny,"Laporte, MN 56461, USA",47.2152778,-94.7541667
Le Center High School,173,Tiny,"Le Center High School, 150 W Tyrone St, Le Center, MN 56057-1299, USA",44.3913889,-93.7330556
Learning for Leadership Charter,28,Tiny,"Learning for Leadership Charter School, 3300 5th St NE # 150, Minneapolis, MN 55418-1165, USA",45.028797,-93.260999
Legacy Christian Academy,173,Tiny,"Legacy Christian Academy, 3037 Bunker Lake Blvd NW, Anoka, MN 55304-7807, USA",45.220797,-93.344062
LeRoy-Ostrander High School,81,Tiny,"Le Roy Ostrander High School, Le Roy, MN 55951, USA",43.5135764,-92.5098977
Lester Prairie High School,109,Tiny,"Lester Prairie Elementary School, 131 Hickory St N, Lester Prairie, MN 55354-7743, USA",44.883037,-94.043272
LeSueur-Henderson High School,321,Small,"Le Sueur Henderson High School, 901 Ferry St, Le Sueur, MN 56058-1699, USA",44.4577778,-93.9013889
Lewiston-Altura High School,233,Small,"Lewiston-Altura Secondary School, 100 County Road 25, Lewiston, MN 55952-2117, USA",43.9260092,-91.8098511
Liberty Classical Academy,33,Tiny,"Liberty Classical Academy, 2696 Hazelwood St, St Paul, MN 55109-1120, USA",45.0239663,-93.035487
Lincoln H I High School,93,Tiny,"Lincoln High School, Bloomington, MN 55431, USA",44.8430202,-93.3127248
Litchfield High School,481,Small,"Litchfield Senior High School, 901 N Gilman Ave, Litchfield, MN 55355-1408, USA",45.1361111,-94.5197222
Little Falls High School,654,Medium,"Little Falls High School, Little Falls, MN 56345, USA",45.9716667,-94.3472222
Littlefork-Big Falls High School,86,Tiny,"Littlefork-Big Falls School, 700 Main St, Littlefork, MN 56653-9319, USA",48.3988889,-93.5547222
Long Prairie-Grey Eagle H.S.,319,Small,"Grey Eagle Elementary School, 304 State St, Grey Eagle, MN 56336-1021, USA",45.825,-94.745
Luverne High School,310,Small,"Luverne Middle School, 709 N Kniss Ave, Luverne, MN 56156-1229, USA",43.6603129,-96.21273
Lyle High School,49,Tiny,"Lyle Public School, Lyle, MN 55953, USA",43.5092419,-92.943975
Mabel-Canton High School,93,Tiny,"Mabel Canton Elementary School, 316 W Fillmore, Mabel, MN 55954-1535, USA",43.5204781,-91.772776
MACCRAY High School,188,Tiny,"MACCRAY High School, 3rd Ave NW, Clara City, MN 56222, USA",44.957373,-95.373698
Madelia High School,139,Tiny,"Madelia High School, 320 Buck Ave SE, Madelia, MN 56062-1857, USA",44.0471826,-94.4113533
Mahnomen High School,141,Tiny,"Mahnomen High School, 309 1st St, Mahnomen, MN 56557-4717, USA",47.3136111,-95.9713888
Mahtomedi High School,1149,Large,"MAHTOMEDI HIGH SCHOOL, 8000 75th St N, Mahtomedi, MN 55115-1795, USA",45.057384,-92.94084
Main Street School of Performing Arts,226,Small,"Main Street School Performing Arts, 1320 Mainstreet, Hopkins, MN 55343-7403, USA",44.9243454,-93.4171727
Mankato East High School,784,Medium,"Mankato East Senior High School, 2600 Hoffman Rd, Mankato, MN 56001-6830, USA",44.1571887,-93.96051
Mankato Loyola High School,150,Tiny,"Loyola High School, Mankato, MN 56001, USA",44.165522,-93.9971773
Mankato West High School,1007,Large,"Mankato West Senior High School, Mankato, MN 56001, USA",44.1589101,-94.0176556
Maple Grove High School,2142,VeryLarge,"Maple Grove Senior High Crimson, 9800 Fernbrook Ln N, Maple Grove, MN 55369-9747, USA",45.1325585,-93.4595561
Maple Lake High School,287,Small,"Maple Lake School District, 200 Hwy 55, Maple Lake, MN 55358-4597, USA",45.2321936,-94.0045674
Maple River High School,295,Small,"Maple River Senior High School, 101 6th Ave SE, Mapleton, MN 56065-2020, USA",43.9282956,-93.9496753
Maranatha Christian Academy,173,Tiny,"Maranatha Christian Academy, 9201 75th Ave N, Brooklyn Park, MN 55428, USA",45.089717,-93.397286
Marshall County Central H. S.,106,Tiny,"Central Ave, Marshall, MN 56258, USA",44.4458339,-95.7783783
Marshall High School,699,Medium,"Marshall Senior High School, 400 Tiger Dr, Marshall, MN 56258-2631, USA",44.4560857,-95.7518894
"Marshall School, Duluth",236,Small,"Marshall School, 1215 Rice Lake Rd, Duluth, MN 55811, USA",46.801998,-92.113344
Martin County West High School,214,Small,"Martin County West High School, 16 W 5th St, Sherburn, MN 56171-1020, USA",43.6575558,-94.7287357
Martin Luther High School,68,Tiny,"Martin Luther High School, 315 Martin Luther Dr, Northrop, MN 56121, USA",43.7399834,-94.433441
Math & Science Academy,128,Tiny,"Math & Science Academy, 8430 Woodbury Xing, St Paul, MN 55125-9433, USA",44.9131493,-92.9343206
Mayer Lutheran High School,235,Small,"Mayer Lutheran High School, 305 5th St NE, Mayer, MN 55360-8533, USA",44.89,-93.8844444
McGregor High School,94,Tiny,"McGregor, MN 55760, USA",46.60667,-93.31278
Medford High School,215,Small,"Medford, MN 55049, USA",44.1721853,-93.2460463
Melrose Area High School,439,Small,"Melrose Secondary School, 546 N 5th Ave E, Melrose, MN 56352, USA",45.6812248,-94.8076757
Menahga High School,163,Tiny,"Menahga Elementary School, 121 Birch Ave SE, Menahga, MN 56464, USA",46.752628,-95.0952202
Mesabi Academy School,21,Tiny,"Mesabi Academy, 200 Wanless St, Buhl, MN 55713, USA",47.4953402,-92.7731355
Mesabi East High School,186,Tiny,"Aurora-Hoyt Senior High School, 601 N 1st St, Aurora, MN 55705-1301, USA",47.5319444,-92.2402778
Metro Deaf School,28,Tiny,"Metro Deaf School, 1471 Brewster St, St Paul, MN 55108-2612, USA",44.974821,-93.162211
Milaca High School,436,Small,"Milaca High School, 500 Hwy 23 W, Milaca, MN 56353-1147, USA",45.7519049,-93.64471
Minisinaakawang Leadership Academy,7,Tiny,"McGregor, MN 55760, USA",46.60667,-93.31278
Minneapolis Edison High School,558,Medium,"Thomas Edison High School, 700 22nd Ave NE, Minneapolis, MN 55418-3696, USA",45.009688,-93.2527906
Minneapolis North Community H.S.,171,Tiny,"North Community High School, 1500 James Ave N, Minneapolis, MN 55411-3199, USA",44.994137,-93.30069
Minneapolis Patrick Henry H. S.,747,Medium,"Henry Senior High School, 4320 Newton Ave N, Minneapolis, MN 55412-1150, USA",45.0341318,-93.3055049
Minneapolis Roosevelt High School,563,Medium,"Roosevelt High School (9-12), 4029 28th Ave S, Minneapolis, MN 55406, USA",44.9298519,-93.230453
Minneapolis South High School,1587,Large,"South High School, 3131 S 19th Ave, Minneapolis, MN 55407-1988, USA",44.9457506,-93.2437992
Minneapolis Southwest High School,1529,Large,"Southwest High School, 3414 W 47th St, Minneapolis, MN 55410-1798, USA",44.9185758,-93.3241151
Minneapolis Washburn High School,741,Medium,"Washburn High School, 201 W 49th St, Minneapolis, MN 55419-5588, USA",44.9133327,-93.2824625
Minnehaha Academy,486,Small,"Minnehaha Acadmey, Mississippi National River and Recreation Area, 3100 W River Pkwy, Minneapolis, MN 55406, USA",44.9459842,-93.2055482
Minneota High School,135,Tiny,"Minneota High School, 504 N Monroe St, Minneota, MN 56264, USA",44.5630556,-95.9813889
Minnesota New Country School,66,Tiny,"New Country School, 210 Main St, Henderson, MN 56044-7707, USA",44.5283333,-93.9030556
Minnesota Online High School,125,Tiny,"Minnesota Online High School, 1313 5th St SE, Minneapolis, MN 55414, USA",44.9620607,-93.1956854
Minnesota State Academy For The Blind,22,Tiny,"Minnesota State Academy for the Blind, 400 6Th Ave, Faribault, MN 55021-6343, USA",44.2866304,-93.2602154
Minnesota State Academy for the Deaf,46,Tiny,"State Academy For the Deaf, 615 Olaf Hansen Dr, Faribault, MN 55021-5330, USA",44.2971859,-93.2593823
Minnesota Transitions Charter School,157,Tiny,"Minnesota Transitions Charter School, 3216 E 29th St, Minneapolis, MN 55406-1780, USA",44.9501926,-93.2253918
Minnesota Valley Lutheran,205,Small,"Valley Lutheran Cemetery, Chester, MN 56684, USA",47.8428883,-95.7311456
Minnetonka High School,2750,VeryLarge,"Minnetonka High School, 18301 Hwy 7, Minnetonka, MN 55345-4114, USA",44.9082848,-93.5127765
Minnewaska Area H.S.,303,Small,"Minnewaska Area High School, 25122 State Highway 28, Glenwood, MN 56334-9327, USA",45.6248403,-95.4548666
Montevideo High School,372,Small,"Montevideo High School, 1501 Williams Ave, Montevideo, MN 56265-2269, USA",44.9388889,-95.7083333
Montgomery-Lonsdale High School,290,Small,"Montgomery-Lonsdale High School, 101 2nd St NE, Montgomery, MN 56069-1529, USA",44.4388527,-93.579637
Monticello High School,1087,Large,"Monticello High School, Monticello, MN 55362, USA",45.2870801,-93.7780923
Moorhead High School,1356,Large,"Moorhead High School, 2300 4th Ave S, Moorhead, MN 56560-3298, USA",46.8722222,-96.7436111
Moose Lake High School,215,Small,"Moose Lake Community Schools, 413 Birch Ave, Moose Lake, MN 55767-7711, USA",46.455,-92.7561111
Mora High School,454,Small,"Mora High School, 400 Maple Ave E, Mora, MN 55051-1387, USA",45.8779787,-93.2926273
Morris Area School,295,Small,"Morris Area Elementary School, 153 S Columbia Ave, Morris, MN 56267-1545, USA",45.5844436,-95.9030761
Mounds Park Academy,243,Small,"Mounds Park Academy, 2051 Larpenteur Ave E, St Paul, MN 55109, USA",44.9940465,-93.0138373
Mounds View High School,1671,Large,"Mounds View Senior High School, 1900 Lake Valentine Rd, Arden Hills, MN 55112-2899, USA",45.064731,-93.177795
Mound-Westonka High School,644,Medium,"Westonka High School, 5905 Sunnyfield Rd E, Mound, MN 55364-8251, USA",44.9567611,-93.6715254
Mountain Iron-Buhl High School,113,Tiny,"Mountain Iron Buhl High School, 5720 Marble Ave, Mountain Iron, MN 55768-3002, USA",47.527129,-92.62065
Mountain Lake High School,111,Tiny,"Mountain Lake Christian School, 710 11th St, Mountain Lake, MN 56159-1012, USA",43.9416238,-94.92582
Mt. Lake Christian High School,33,Tiny,"Mountain Lake, MN 56159, USA",43.938846,-94.9297089
Murray County Central High School,202,Small,"Murray County Central High School, 2420 28th St, Slayton, MN 56172-1498, USA",43.9846863,-95.7569575
Nashwauk-Keewatin High School,133,Tiny,"Nashwauk-Keewatin High School, 400 2nd St, Nashwauk, MN 55769-1298, USA",47.3761111,-93.1663889
Nevis High School,136,Tiny,"Nevis, MN 56467, USA",46.9652363,-94.8394565
New Century Charter School,91,Tiny,"New Century Charter School, Hutchinson, MN 55350, USA",44.898611,-94.3541666
New Life Academy of Woodbury,239,Small,"New Life Academy, 6758 Bailey Rd, Woodbury, MN 55129, USA",44.8908642,-92.9688228
New London-Spicer High School,446,Small,"New London-Spicer School District 345, 101 4Th Ave, New London, MN 56273-8617, USA",45.2953141,-94.9431662
New Prague High School,1111,Large,"New Prague Senior High School, 221 12th St NE, New Prague, MN 56071-2074, USA",44.5561111,-93.5744444
New Richland-H-E-G H.S.,264,Small,"New Richland, MN 56072, USA",43.8938493,-93.4938287
New Testament Christian School,19,Tiny,"New Testament Christian School, 2505 State Highway 29, Alexandria, MN 56308-8500, USA",45.9102778,-95.3361111
New Ulm Cathedral High School,152,Tiny,"Cathedral High School, 600 N Washington St, New Ulm, MN 56073-1896, USA",44.3174625,-94.4685846
New Ulm High School,589,Medium,"New Ulm High School, 414 S Payne St, New Ulm, MN 56073-3273, USA",44.3041667,-94.4633333
New York Mills High School,158,Tiny,"New York Mills Elementary School, 209 Hayes Ave, New York Mills, MN 56567, USA",46.5213889,-95.3777778
Nicollet High School,90,Tiny,"Nicollet High School, Nicollet, MN 56074, USA",44.273611,-94.1866667
Norman County East High School,95,Tiny,"Norman County East High School, Twin Valley, MN 56584, USA",47.2611111,-96.2641667
Norman County West High School,65,Tiny,"Norman County East High School, Twin Valley, MN 56584, USA",47.2611111,-96.2641667
North Branch High School,945,Medium,"North Branch Senior High School, 38175 Grand Ave, North Branch, MN 55056-6070, USA",45.5019444,-92.9683333
North High School,1671,Large,"North High School, 1500 James Ave N, Minneapolis, MN 55411-3199, USA",44.994137,-93.30069
North Lakes Academy,126,Tiny,"North Lakes Academy, 255 7th Ave NW # B, Forest Lake, MN 55025-1177, USA",45.2872569,-92.9864939
North Woods High School,86,Tiny,"Cook School, 306 E Vermilion Blvd, Cook, MN 55723-9744, USA",47.85333,-92.695712
Northeast Range High School,91,Tiny,"Babbitt Elementary School, 30 South Dr, Babbitt, MN 55706-1108, USA",47.7080556,-91.9508333
Northfield High School,1173,Large,"Northfield Senior High School, 1400 Division St S, Northfield, MN 55057-2799, USA",44.444082,-93.163477
Northland High School,109,Tiny,"Northland Secondary School, 316 Main St E, Remer, MN 56672, USA",47.058385,-93.910113
Northome High School,53,Tiny,"Northome School, 11731 Hwy 1 E, Northome, MN 56661, USA",47.8749071,-94.2353823
Northwest Passage Charter High School,147,Tiny,"Coon Rapids, MN, USA",45.1199652,-93.2877277
Norwood-Young America High School,331,Small,"Central High School, Norwood Young America, MN 55368, USA",44.7741667,-93.9222221
Nova Classical Academy,54,Tiny,"Nova Classical Academy, 1668 Montreal Ave, St Paul, MN 55116-2469, USA",44.911561,-93.170785
Ogilvie High School,155,Tiny,"Ogilvie High School, 333 School Dr, Ogilvie, MN 56358-9019, USA",45.8266451,-93.4326194
Onamia High School,133,Tiny,"Onamia High School, 35465 125th Ave # 1, Onamia, MN 56359-3210, USA",46.0614643,-93.6725689
Orono High School,876,Medium,"Orono School District, 685 N Old Crystal Bay Rd, Long Lake, MN 55356, USA",44.991004,-93.5956621
Ortonville High School,183,Tiny,"Ortonville High School, 200 Trojan Dr, Ortonville, MN 56278-1393, USA",45.3083333,-96.4411111
Osakis High School,237,Small,"Osakis High School, 500 E 1st Ave, Osakis, MN 56360-8253, USA",45.8648486,-95.1506208
Osseo High School,1823,Large,"Osseo Jr High School, 10223 93rd Ave N, Maple Grove, MN 55369-4197, USA",45.122611,-93.411478
Owatonna High School,1442,Large,"Owatonna Senior High School, 333 E School St, Owatonna, MN 55060-3095, USA",44.07853,-93.219259
PACT Charter School,191,Tiny,"Pact Charter School, 7250 E Ramsey Pkwy, Anoka, MN 55303-6902, USA",45.233792,-93.451288
Park Center High School,1471,Large,"Park Center Ib World School, 7300 Brooklyn Blvd, Brooklyn Park, MN 55443-3395, USA",45.089222,-93.344078
Park Christian High School,106,Tiny,"Moorhead, MN, USA",46.8738889,-96.7672222
Park High School,1656,Large,"Park High School, 8040 80th St S, Cottage Grove, MN 55016-2097, USA",44.83445,-92.941108
Park Rapids Area High School,405,Small,"Park Rapids High School, 301 Huntsinger Ave, Park Rapids, MN 56470-1107, USA",46.9258333,-95.0644444
Parkers Prairie High School,159,Tiny,"Parkers Prairie Elementary School, 411 S Otter Ave, Parkers Prairie, MN 56361-4504, USA",46.1502683,-95.3289622
Paynesville Area High School,267,Small,"MIDDLE SCHOOL PRINCIPAL, 795 W State Highway 23, Paynesville, MN 56362-2098, USA",45.3741667,-94.7277778
Pelican Rapids High School,266,Small,"Pelican Rapids High School, 310 S Broadway, Pelican Rapids, MN 56572, USA",46.566399,-96.083893
Pequot Lakes High School,427,Small,"Pequot Lakes High School, Pequot Lakes, MN 56472, USA",46.6,-94.31667
Perham High School,413,Small,"Perham High School, 200 5th St, Perham, MN 56573-1762, USA",46.59,-95.5752778
Perpich Center for Arts Education,259,Small,"Perpich Center for Arts Education, 6125 Olson Memorial Hwy, Golden Valley, MN 55422-4918, USA",44.983804,-93.358677
Pierz High School,309,Small,"Pierz, MN 56364, USA",45.9816318,-94.1047124
Pillager High School,200,Tiny,"Pillager Elementary School, 323 E 2nd St, Pillager, MN 56473, USA",46.327774,-94.470317
Pine City High School,395,Small,"Pine City Area Learning Center, 1400 Main St S, Pine City, MN 55063-2155, USA",45.8125046,-92.9704915
Pine Island High School,333,Small,"Pine Island High School, 223 1st Ave SE, Pine Island, MN 55963-7518, USA",44.2011111,-92.6441667
Pine River-Backus High School,205,Small,"Pine River-Backus High School, 810 1st St, Pine River, MN 56474-4496, USA",46.71917,-94.38806
Pipestone Area High School,287,Small,"Pipestone, MN 56164, USA",43.9985815,-96.3128117
Plainview-Elgin-Millville High School,478,Small,"Plainview School Superintendent's Office, 500 W Broadway, Plainview, MN 55964-1031, USA",44.1655556,-92.1733333
Prairie Seeds Academy,137,Tiny,"Minnesota, USA",46.729553,-94.6858998
Prestige Academy,42,Tiny,"Ascension Academy, 1704 Dupont Ave N, Minneapolis, MN 55411-3219, USA",44.996905,-93.2918569
Princeton High School,925,Medium,"Princeton High School, 606 3rd St S, Princeton, MN 55371, USA",45.5670158,-93.5818224
Prior Lake High School,2154,VeryLarge,"PRIOR LAKE HIGH SCHOOL, 7575 150th St W, Savage, MN 55378-2131, USA",44.728105,-93.3777999
Proctor High School,500,Small,"Proctor Senior High School, 131 9th Ave, Duluth, MN 55810-2741, USA",46.7438889,-92.2363889
Providence Academy,287,Small,"Providence Academy, 15100 Schmidt Lake Rd, Plymouth, MN 55446, USA",45.043555,-93.471937
Randolph High School,161,Tiny,"Randolph, MN, USA",44.526078,-93.0199336
Red Lake County Central,71,Tiny,"Central Ave, Plummer, MN 56748, USA",47.9116496,-96.0499727
Red Lake Falls High School,108,Tiny,"Red Lake Falls Public Schools, 404 Champagne Ave SW, Red Lake Falls, MN 56750-4503, USA",47.8801194,-96.2755382
Red Lake High School,175,Tiny,"Red Lake Alternative Learning, Red Lake, MN 56667, USA",47.8763514,-95.0168839
Red Rock Central High School,121,Tiny,"Red Rock Central High School, 100 6th Ave E, Lamberton, MN 56152-1059, USA",44.2269444,-95.2625
Red Wing High School,809,Medium,"Red Wing High School, Red Wing, MN 55066, USA",44.5369444,-92.5161111
Redwood Valley High School,353,Small,"Redwood Area Schools, 100 George Ramseth Dr, Redwood Falls, MN 56283-1938, USA",44.5387583,-95.091682
Renville County West High School,132,Tiny,"Renville Public School, Renville, MN 56284, USA",44.7913077,-95.2079809
Richfield High School,928,Medium,"RICHFIELD HIGH SCHOOL, 7001 S Harriet Ave, Richfield, MN 55423, USA",44.876264,-93.2857934
Riverway Learning Community,22,Tiny,"Minnesota, USA",46.729553,-94.6858998
Robbinsdale Armstrong High School,1789,Large,"Robbinsdale Armstrong High School, 10635 36th Ave, Minneapolis, MN 55441-2410, USA",45.019456,-93.417961
Robbinsdale Cooper High School,1468,Large,"Robbinsdale Cooper High School, New Hope, MN 55428, USA",45.0416312,-93.384674
Rochester Century High School,1275,Large,"Century High School, 2525 Viola Rd NE, Rochester, MN 55906-7604, USA",44.049535,-92.425318
Rochester John Marshall,1391,Large,"John Marshall, Rochester, MN 55901, USA",44.0346416,-92.4839094
Rochester Lourdes High School,460,Small,"Lourdes High School, 621 W Center St, Rochester, MN 55902-6200, USA",44.0238528,-92.4718438
Rochester Mayo High School,1506,Large,"Mayo High School, 1420 11th Ave SE, Rochester, MN 55904-5306, USA",44.0030193,-92.4465642
Rochester Off-Campus Charter High School,83,Tiny,"Rochester Off-Campus Public Charter High School, 2364 Valleyhigh Dr NW, Rochester, MN 55901-7641, USA",44.0478672,-92.5074074
Rockford High School,401,Small,"Rockford High School, Rockford, MN 55373, USA",45.0883333,-93.72
Rocori High School,742,Medium,"Rocori Senior High School, 534 5th Ave N, Cold Spring, MN 56320-1498, USA",45.4633333,-94.4283333
Rogers High School,1161,Large,"Rogers Senior High School, 21000 141st Ave, Rogers, MN 55374-4596, USA",45.213893,-93.543943
Roseau High School,374,Small,"Roseau High School, 509 3rd St, Roseau, MN 56751-1113, USA",48.8486111,-95.7558333
Rosemount High School,2013,VeryLarge,"Rosemount High School, 3335 142nd St W, Rosemount, MN 55068-4029, USA",44.74434,-93.131993
Roseville Area High School,1840,Large,"Roseville Area High School, 1240 County Road B2 W, Roseville, MN 55113-4396, USA",45.0116538,-93.1528509
Rothsay High School,59,Tiny,"Rothsay, MN 56579, USA",46.4733333,-96.2833333
Round Lake-Brewster,69,Tiny,"Brewster, Minnesota, USA",43.7182089,-95.4568133
Royalton High School,183,Tiny,"Royalton High School, 120 S Hawthorn St, Royalton, MN 56373-9111, USA",45.8291667,-94.2816667
Rush City High School,236,Small,"Rush City High School, 51001 Fairfield Ave, Rush City, MN 55069, USA",45.69,-92.9808333
Rushford-Peterson High School,146,Tiny,"Rushford Peterson High School, 102 N Mill St, Rushford, MN 55971-9195, USA",43.8113532,-91.7523702
Russell-Tyler-Ruthton High School,153,Tiny,"RTR High School, 100 Strong St, Tyler, MN 56178-1157, USA",44.2784089,-96.134715
Sacred Heart High School,102,Tiny,"Sacred Heart High School, 122 3rd St NW, East Grand Forks, MN 56721-1827, USA",47.9277919,-97.0229321
Saint Agnes High School,216,Small,"St Agnes School, 530 Lafond Ave, St Paul, MN 55103-1693, USA",44.9599655,-93.1224421
Saint Anthony Village High School,609,Medium,"St ANTHONY VILLAGE HIGH SCHOOL, 3303 33rd Ave NE, Minneapolis, MN 55418-1798, USA",45.0296044,-93.2136512
Saint Charles High School,263,Small,"St Charles High School, 600 E 6th St, St Charles, MN 55972-1498, USA",43.971927,-92.0559558
Saint Clair High School,175,Tiny,"St Clair High School, 121 Main St W, St Clair, MN 56001, USA",44.0837335,-93.860611
Saint Cloud Apollo High School,1031,Large,"Apollo High School, 1000 44th Ave N, St Cloud, MN 56303-2036, USA",45.5672485,-94.2124572
Saint Cloud Cathedral High School,434,Small,"John Xxiii/Cathedral High Schl, 312 7th Ave N, St Cloud, MN 56303-3634, USA",45.5635456,-94.1625202
Saint Cloud Christian School,61,Tiny,"St Cloud Christian School, St Cloud, MN 56301, USA",45.552743,-94.1705453
Saint Cloud Tech High School,1241,Large,"Technical High School, 233 12th Ave S, St Cloud, MN 56301-4293, USA",45.5541667,-94.165
Saint Croix Lutheran High School,411,Small,"St Croix Lutheran High School, 1200 Oakdale Ave, West St Paul, MN 55118-2699, USA",44.910353,-93.0729379
Saint Francis High School,1504,Large,"St Francis High School, St Francis, MN 55070, USA",45.3880556,-93.35
Saint James High School,292,Small,"St James High School, 1001 10th Ave N, St James, MN 56081-2000, USA",43.9910689,-94.625529
Saint John's Prep,223,Small,"St John's Preparatory School, Saint John's University, Collegeville, MN 56374, USA",45.5797222,-94.3886111
Saint Louis Park High School,1178,Large,"St Louis Park High School, 6425 W 33rd St, St Louis Park, MN 55426-3498, USA",44.9430485,-93.3613562
Saint Michael-Albertville H.S.,1314,Large,"St Michael-Albertville Arena, 5898 Lachman Ave NE, Albertville, MN 55301-3956, USA",45.23788,-93.660657
Saint Paul Central High School,1716,Large,"Central High School, 275 Lexington Pkwy, St Paul, MN 55104-5402, USA",44.94941,-93.1479984
Saint Paul Como Park H.S.,1111,Large,"Como Park: Visitor Services Administration, Kaufman Dr, St Paul, MN 55103, USA",44.9799985,-93.152865
Saint Paul Harding High School,1355,Large,"Harding High School, 1540 6Th St, St Paul, MN 55106-4806, USA",44.9594689,-93.0360568
Saint Paul Highland Park,1151,Large,"Victoria Highland Park, St Paul, MN 55118, USA",44.8943968,-93.1349956
Saint Paul Humboldt High School,423,Small,"Humboldt Senior High School, 30 Baker St E, St Paul, MN 55107-2997, USA",44.9266324,-93.0843847
Saint Paul Johnson High School,1123,Large,"St Paul Johnson High School, 1349 Arcade St, St Paul, MN 55106-1899, USA",44.9816323,-93.0671627
Saint Paul Open School,84,Tiny,"Marcy Open Elementary School (K-8), 415 4th Ave SE, Minneapolis, MN 55414-1761, USA",44.9862531,-93.2497898
Saint Peter High School,492,Small,"St Peter High School, St Peter, MN 56082, USA",44.3285203,-93.9662951
Saint Thomas Academy,1066,Large,"St Thomas Academy, 949 Mendota Heights Rd, Mendota Heights, MN 55120, USA",44.8655629,-93.1384632
Sartell-Saint Stephen High School,962,Medium,"Sartell, MN, USA",45.6216318,-94.2069365
Sauk Centre High School,334,Small,"Sauk Centre Senior High School, 903 State Rd, Sauk Centre, MN 56378-1672, USA",45.7287282,-94.9445492
Sauk Rapids-Rice High School,1078,Large,"Sauk Rapids-Rice Senior High School, 1835 Osauka Rd, Sauk Rapids, MN 56379-4530, USA",45.6093413,-94.1263045
Schaeffer Academy,93,Tiny,"Schaeffer Academy, Rochester, MN 55906, USA",44.0527778,-92.4169444
Sebeka High School,146,Tiny,"Sebeka Elementary School, 200 1st St NW, Sebeka, MN 56477-2467, USA",46.6309902,-95.0909837
Shakopee High School,1736,Large,"Shakopee Senior High School, 100 17th Ave W, Shakopee, MN 55379-4800, USA",44.7685449,-93.5288537
Shattuck-Saint Mary's,391,Small,"Shattuck-St Marys School, 1000 Shumway Ave, Faribault, MN 55021-4400, USA",44.3054856,-93.2590932
Sibley East High School,313,Small,"Sibley East High School, Arlington, MN 55307, USA",44.6089947,-94.0790106
Silver Bay (Wm. Kelley) High School,130,Tiny,"William Kelley Elementary School, 137 Banks Blvd, Silver Bay, MN 55614-1297, USA",47.2941596,-91.272303
Simley High School,973,Medium,"Simley Senior High School, 2920 80th St E, Inver Grove Hts, MN 55076-3232, USA",44.8316329,-93.0454929
Sioux Valley Lutheran High School,6,Tiny,"Lakefield, MN 56150, USA",43.6774593,-95.1716615
Sleepy Eye High School,162,Tiny,"Sleepy Eye Public High School, 400 4th Ave SW, Sleepy Eye, MN 56085, USA",44.2941023,-94.7273555
Sleepy Eye Saint Mary's High School,124,Tiny,"St Mary's Grade School, 104 St Marys St NW, Sleepy Eye, MN 56085-1098, USA",44.3045899,-94.7229352
South Ridge High School,107,Tiny,"East Ridge High School, 4200 Pioneer Dr, Woodbury, MN 55129-9534, USA",44.8862624,-92.9327734
South Saint Paul High School,768,Medium,"South St Paul High School's Student Parking Lot 1, 700 2nd St N, South St Paul, MN 55075-2099, USA",44.8926752,-93.0417041
Southland High School,212,Small,"Southland School District, 203 NW 2nd St, Adams, MN 55909-9686, USA",43.5688546,-92.7165723
Southwest Christian School,163,Tiny,"Southwest MN Christian High School, 550 W Elizabeth St, Edgerton, MN 56128-2777, USA",43.8759251,-96.1382995
Southwest Minnesota Christian,109,Tiny,"Central Minnesota Christian School, 204 School St, Prinsburg, MN 56281, USA",44.9372432,-95.1861691
Southwest Star Concept H. S.,116,Tiny,"Southwest Star Concept School, 124 N Minnesota Ave, Okabena, MN 56161-4000, USA",43.740453,-95.316674
Spectrum High School,222,Small,"Spectrum High School, 10129 181st Ave NW, Elk River, MN 55330-3305, USA",45.2994473,-93.5235612
Spring Grove High School,86,Tiny,"Spring Grove High School, 113 2nd Ave, Spring Grove, MN 55974-1204, USA",43.560802,-91.6418123
Spring Lake Park High School,1135,Large,"Spring Lake Park Senior High School, 8001 Able St NE, Spring Lake Park, MN 55432, USA",45.1132634,-93.2483528
Springfield High School,176,Tiny,"Springfield School District, 12 Burns Ave, Springfield, MN 56087-1202, USA",44.2383333,-94.9822222
St. Croix Preparatory Academy,176,Tiny,"Minnesota, USA",46.729553,-94.6858998
St. John Vianney Academy,25,Tiny,"St John Vianney School, 789 17th Ave N, South St Paul, MN 55075-1497, USA",44.9044445,-93.0564246
St. Paul Academy and Summit School,353,Small,"St Paul Academy and Summit School, 1712 Randolph Ave, St Paul, MN 55105, USA",44.92563,-93.174727
St. Paul Preparatory School,163,Tiny,"St Paul, MN, USA",44.9541667,-93.1138889
St.Paul Conservatory for Performing Arts,521,Medium,"St Paul Conservatory for Performing Artists, Ste 522, 75 5th St, St Paul, MN 55102-1439, USA",44.94515,-93.0966718
Staples-Motley High School,372,Small,"Staples Motley High School, 401 Centennial Ln, Staples, MN 56479-2118, USA",46.3577778,-94.7963889
Stephen-Argyle Central High School,98,Tiny,"Stephen - Argyle Central School, 6th St, Stephen, MN 56757, USA",48.4505556,-96.8783333
Stewartville High School,484,Small,"Stewartville High School, 400 6th Ave SW, Stewartville, MN 55976, USA",43.8486026,-92.4957022
Stillwater Area High School,2670,VeryLarge,"Stillwater Area High School, 2003 Willard St, Stillwater, MN 55082-5553, USA",45.0294444,-92.8472222
Studio Academy,77,Tiny,"Studio Academy Charter School, 415 16th St SW, Rochester, MN 55902-2125, USA",44.0005171,-92.4695098
Swanville High School,97,Tiny,"Swanville Elementary School, 602 De Graff Ave, Swanville, MN 56382, USA",45.9135693,-94.6406873
Tartan High School,1581,Large,"Tartan Senior High School, 828 Greenway Ave N, Oakdale, MN 55128-6202, USA",44.961396,-92.972155
Thief River Falls High School,550,Medium,"Thief River Falls, MN 56701, USA",48.1191353,-96.1811473
Totino-Grace High School,802,Medium,"Totino-Grace High School, 1350 Gardena Ave NE, Fridley, MN 55432-5899, USA",45.073337,-93.235193
Tracy-Milroy-Balaton High School,221,Small,"Tracy Secondary School, 934 County Road 73, Tracy, MN 56175-1710, USA",44.2250079,-95.6310347
TrekNorth High School,95,Tiny,"Treknorth High School, 2518 Hannah Ave NW, Bemidji, MN 56601-2110, USA",47.4925724,-94.9058774
Tri-County High School,66,Tiny,"Tri-County High School, 303 Pembina Trl S, Karlstad, MN 56732-4405, USA",48.5749843,-96.5235527
Trinity School at River Ridge,220,Small,"Trinity School at River Ridge, 601 River Ridge Pkwy, Eagan, MN 55121, USA",44.859884,-93.109645
Triton High School,283,Small,"Triton High School, 813 W Highway St, Dodge Center, MN 55927-9153, USA",44.0349107,-92.8656336
Truman High School,93,Tiny,"Minnesota, USA",46.729553,-94.6858998
Twin Cities Academy High School,110,Tiny,"Twin Cities Academy, 835 E 5th St, St Paul, MN 55106, USA",44.9594755,-93.0649783
Two Harbors High School,308,Small,"Two Harbors High School, 1640 Hwy 2 # 100, Two Harbors, MN 55616-4017, USA",47.0503977,-91.6672672
Ulen-Hitterdal High School,82,Tiny,"Ulen-Hitterdal Elementary School, 27 2nd St NW, Ulen, MN 56585, USA",47.0787497,-96.256731
Underwood High School,138,Tiny,"Underwood High School, 100 Southern Ave, Underwood, MN 56586-7013, USA",46.2819444,-95.8708333
United South Central High School,210,Small,"United South Central High School, 250 2nd Ave SW, Wells, MN 56097-1922, USA",43.7427325,-93.7293916
Upsala High School,124,Tiny,"Upsala High School, 415 N Main St, Upsala, MN 56384-8420, USA",45.8075213,-94.5715552
Verndale High School,126,Tiny,"Verndale High School, 411 County Road 23, Verndale, MN 56481-3000, USA",46.3945497,-95.0172222
Virginia High School,460,Small,"Virginia Secondary School, 411 S 5th Ave, Virginia, MN 55792-2768, USA",47.520833,-92.538889
Visitation High School,606,Medium,"Mendota Heights, MN, USA",44.8835768,-93.1382749
Wabasha-Kellogg High School,208,Small,"Wabasha Kellogg High School, Wabasha, MN 55981, USA",44.3582997,-92.0109994
Wabasso High School,134,Tiny,"Wabasso Secondary School, 1333 May St, Wabasso, MN 56293, USA",44.4050723,-95.2554057
Waconia High School,996,Medium,"Waconia Senior High School, 1400 Community Dr, Waconia, MN 55387-1158, USA",44.8358031,-93.8110895
Wadena-Deer Creek High School,256,Small,"Wadena-Deer Creek Senior High School, 600 Colfax Ave SW, Wadena, MN 56482-1700, USA",46.4418857,-95.1469165
Walker-Hackensack-Akeley H.S.,207,Small,"Walker-Hackensack-Akeley School, 301 4th St, Walker, MN 56484, USA",47.0987497,-94.5802941
Warren-Alvarado-Oslo High School,115,Tiny,"Warren-Alvarado-Oslo Secondary School, 224 E Bridge Ave, Warren, MN 56762, USA",48.1951214,-96.7683816
Warroad High School,318,Small,"Warroad High School, Warroad, MN 56763, USA",48.9111111,-95.3291667
Waseca High School,522,Medium,"Waseca High School, 1717 2nd St NW, Waseca, MN 56093-2299, USA",44.0944075,-93.5096651
Watertown-Mayer High School,445,Small,"Watertown Mayer High School, 1001 Hwy 25 Shls NW, Watertown, MN 55388-9422, USA",44.9702329,-93.857038
Waterville-Elysian-Morristown H.S.,251,Small,"Waterville, MN 56096, USA",44.218853,-93.5680022
Waubun High School,119,Tiny,"Waubun High School, Waubun, MN 56589, USA",47.1809412,-95.9393546
Wayzata High School,3060,VeryLarge,"Wayzata High School, 4955 Peony Ln N, Plymouth, MN 55446, USA",45.0438525,-93.5094002
West Central Area School,205,Small,"West Central Area Secondary School, Barrett, MN 56311, USA",45.9111111,-95.8866667
West Lutheran High School,161,Tiny,"West Lutheran High School, 3350 Harbor Ln N, Plymouth, MN 55447-5255, USA",45.0182335,-93.4637105
Westbrook-Walnut Grove High School,135,Tiny,"Westbrook School District, 344 8th St, Westbrook, MN 56183-1116, USA",44.0441411,-95.4331517
Wheaton High School,129,Tiny,"Wheaton High School, Wheaton, MN 56296, USA",45.8008333,-96.5077778
White Bear Lake Area High School,2257,VeryLarge,"White Bear Lake Area High School - Insight, 2449 Orchard Ln, White Bear Lake, MN 55110-7509, USA",45.044154,-92.998774
Willmar High School,994,Medium,"Willmar Jr High School, Willmar, MN 56201, USA",45.1125,-95.0388889
Willow River High School,103,Tiny,"Willow River, MN, USA",46.3182794,-92.8413116
Windom Area High School,247,Small,"Windom Area High School, Windom, MN 56101, USA",43.8757908,-95.1308258
Win-E-Mac High School,122,Tiny,"WIN-E-MAC ELEMENTARY SCHOOL, Erskine, MN 56535, USA",47.6625,-96.011111
Winona High School,997,Medium,"Winona Senior High School, 901 Gilmore Ave, Winona, MN 55987-2580, USA",44.0466296,-91.6618156
Woodbury High School,1715,Large,"Woodbury High School, 2665 Woodlane Dr, Woodbury, MN 55125-2999, USA",44.9107119,-92.96151
Worthington High School,563,Medium,"Worthington Senior High School, 1211 Clary St, Worthington, MN 56187-2005, USA",43.6282971,-95.5969534
Wrenshall High School,86,Tiny,"Wrenshall High School, Wrenshall, MN 55797, USA",46.6169444,-92.3819444
Yellow Medicine East H.S.,252,Small,"Yellow Medicine, Minnesota, USA",44.7380445,-95.8564864
Zimmerman High School,546,Medium,"Zimmerman High School, 25900 4Th St, Zimmerman, MN 55398-9013, USA",45.4416667,-93.5930556
Zumbrota-Mazeppa High School,339,Small,"Zumbrota Mazeppa High School, Zumbrota, MN 55992, USA",44.2908333,-92.6727778
